     2              NAVIGATION DATA                         RINEX VERSION / TYPE
CCRINEXN V1.6.0 UX  CDDIS               27-DEC-11 15:33     PGM / RUN BY / DATE 
IGS BROADCAST EPHEMERIS FILE                                COMMENT             
    0.1956D-07 -0.7451D-08 -0.5960D-07  0.1192D-06          ION ALPHA           
    0.1372D+06 -0.1966D+06  0.6554D+05  0.1311D+06          ION BETA            
    0.745058059692D-08 0.106581410364D-13   319488     1668 DELTA-UTC: A0,A1,T,W
    15                                                      LEAP SECONDS        
                                                            END OF HEADER       
18 11 12 26 23 59 44.0 0.173783395439D-03 0.181898940355D-11 0.000000000000D+00
    0.000000000000D+00-0.229687500000D+02 0.543379776806D-08-0.149935745074D+01
   -0.109709799290D-05 0.127366973320D-01 0.713579356670D-05 0.515365164757D+04
    0.172784000000D+06 0.277534127235D-06 0.258829990963D+01 0.745058059692D-07
    0.931021629885D+00 0.221625000000D+03-0.220111526691D+01-0.830498879326D-08
   -0.440732643998D-09 0.100000000000D+01 0.166800000000D+04 0.000000000000D+00
    0.200000000000D+01 0.000000000000D+00-0.111758708954D-07 0.000000000000D+00
    0.169248000000D+06 0.400000000000D+01 0.000000000000D+00 0.000000000000D+00
23 11 12 26 23 59 44.0 0.247347168624D-03-0.329691829393D-11 0.000000000000D+00
    0.300000000000D+01 0.799375000000D+02 0.426874923911D-08 0.206508731271D+01
    0.428594648838D-05 0.751681649126D-02 0.121351331472D-04 0.515370211601D+04
    0.172784000000D+06-0.968575477600D-07-0.264740130410D+01 0.141561031342D-06
    0.962316905939D+00 0.147500000000D+03-0.302822251211D+01-0.784889836669D-08
   -0.183936233111D-09 0.000000000000D+00 0.166800000000D+04 0.000000000000D+00
    0.200000000000D+01 0.000000000000D+00-0.204890966415D-07 0.300000000000D+01
    0.165600000000D+06 0.400000000000D+01 0.000000000000D+00 0.000000000000D+00
